{
  "norad_id": 64274,
  "name": "STARLINK-34272",
  "history": [
    {
      "epoch": "2026-03-28T20:01:38.774784Z",
      "apogee_km": 476.6496814846332,
      "perigee_km": 473.6028577002389,
      "latitude_deg": -2.3393652703507688e-05,
      "longitude_deg": -98.6356125584557,
      "height_km": 476.22491208108613,
      "semi_major_axis_km": 6853.263269592436,
      "eccentricity": 0.00022229,
      "inclination_deg": 53.1615,
      "raan_deg": 28.0252,
      "arg_perigee_deg": 97.6096,
      "mean_anomaly_deg": 262.5157,
      "mean_motion_rev_day": 15.30229741
    },
    {
      "epoch": "2026-03-29T02:17:51.521280Z",
      "apogee_km": 476.07350805776605,
      "perigee_km": 474.27108771242365,
      "latitude_deg": -7.404428446616598e-05,
      "longitude_deg": 165.84083102537784,
      "height_km": 475.9078636612515,
      "semi_major_axis_km": 6853.309297885095,
      "eccentricity": 0.0001315,
      "inclination_deg": 53.1618,
      "raan_deg": 26.8123,
      "arg_perigee_deg": 79.5997,
      "mean_anomaly_deg": 280.5151,
      "mean_motion_rev_day": 15.30214325
    },
    {
      "epoch": "2026-03-30T01:48:39.478752Z",
      "apogee_km": 475.9704932573941,
      "perigee_km": 474.38737727634725,
      "latitude_deg": -3.639482759572972e-05,
      "longitude_deg": 167.62397901936822,
      "height_km": 475.9999435573921,
      "semi_major_axis_km": 6853.315935266871,
      "eccentricity": 0.0001155,
      "inclination_deg": 53.1622,
      "raan_deg": 22.2609,
      "arg_perigee_deg": 84.3828,
      "mean_anomaly_deg": 275.7304,
      "mean_motion_rev_day": 15.30212102
    },
    {
      "epoch": "2026-03-30T04:56:46.009248Z",
      "apogee_km": 475.74323213724256,
      "perigee_km": 474.716597773383,
      "latitude_deg": 7.13650692331115e-05,
      "longitude_deg": 119.86129312201777,
      "height_km": 476.03525732753195,
      "semi_major_axis_km": 6853.3669149553125,
      "eccentricity": 7.49e-05,
      "inclination_deg": 53.1625,
      "raan_deg": 21.6541,
      "arg_perigee_deg": 79.482,
      "mean_anomaly_deg": 280.6266,
      "mean_motion_rev_day": 15.30195028
    },
    {
      "epoch": "2026-03-30T19:03:15.042240Z",
      "apogee_km": 476.2648792055397,
      "perigee_km": 474.08237390340855,
      "latitude_deg": 8.535273685476692e-06,
      "longitude_deg": -95.0691214352645,
      "height_km": 476.0074745088015,
      "semi_major_axis_km": 6853.310626554474,
      "eccentricity": 0.00015923,
      "inclination_deg": 53.1627,
      "raan_deg": 18.9241,
      "arg_perigee_deg": 86.6337,
      "mean_anomaly_deg": 273.4846,
      "mean_motion_rev_day": 15.3021388
    },
    {
      "epoch": "2026-03-31T12:17:50.445888Z",
      "apogee_km": 476.8079097932614,
      "perigee_km": 473.62151244869256,
      "latitude_deg": -2.7776040111611006e-05,
      "longitude_deg": 2.237185536475203,
      "height_km": 476.2355959389809,
      "semi_major_axis_km": 6853.351711120977,
      "eccentricity": 0.00023247,
      "inclination_deg": 53.1608,
      "raan_deg": 15.5861,
      "arg_perigee_deg": 94.4723,
      "mean_anomaly_deg": 265.6543,
      "mean_motion_rev_day": 15.3020012
    },
    {
      "epoch": "2026-04-01T11:48:38.088864Z",
      "apogee_km": 475.95248524996805,
      "perigee_km": 474.3871899682581,
      "latitude_deg": -2.7825713636893366e-05,
      "longitude_deg": 4.024420178228159,
      "height_km": 476.21503172029344,
      "semi_major_axis_km": 6853.306837609112,
      "eccentricity": 0.0001142,
      "inclination_deg": 53.1626,
      "raan_deg": 11.0375,
      "arg_perigee_deg": 100.7983,
      "mean_anomaly_deg": 259.3146,
      "mean_motion_rev_day": 15.30215149
    },
    {
      "epoch": "2026-04-02T03:29:09.958560Z",
      "apogee_km": 475.9347619022901,
      "perigee_km": 474.41593082008876,
      "latitude_deg": 2.8393999756326357e-05,
      "longitude_deg": 125.21450168494212,
      "height_km": 476.3067368311283,
      "semi_major_axis_km": 6853.312346361189,
      "eccentricity": 0.00011081,
      "inclination_deg": 53.1604,
      "raan_deg": 8.0041,
      "arg_perigee_deg": 107.8661,
      "mean_anomaly_deg": 252.2461,
      "mean_motion_rev_day": 15.30213304
    },
    {
      "epoch": "2026-04-02T22:17:47.652864Z",
      "apogee_km": 475.86106685563755,
      "perigee_km": 474.1835505200561,
      "latitude_deg": 4.5234503928605734e-05,
      "longitude_deg": -161.3546633996847,
      "height_km": 476.2687489873367,
      "semi_major_axis_km": 6853.1593086878465,
      "eccentricity": 0.00012239,
      "inclination_deg": 53.1601,
      "raan_deg": 4.3645,
      "arg_perigee_deg": 114.5227,
      "mean_anomaly_deg": 245.5902,
      "mean_motion_rev_day": 15.30264561
    },
    {
      "epoch": "2026-04-03T17:06:26.184384Z",
      "apogee_km": 477.3767348075007,
      "perigee_km": 473.19888704275945,
      "latitude_deg": 4.754141339051829e-06,
      "longitude_deg": -87.92856969285798,
      "height_km": 476.34718083466896,
      "semi_major_axis_km": 6853.424810925129,
      "eccentricity": 0.0003048,
      "inclination_deg": 53.1591,
      "raan_deg": 0.7237,
      "arg_perigee_deg": 94.5041,
      "mean_anomaly_deg": 265.6308,
      "mean_motion_rev_day": 15.30175638
    },
    {
      "epoch": "2026-04-04T18:11:18.031776Z",
      "apogee_km": 475.828989454767,
      "perigee_km": 474.3994012554158,
      "latitude_deg": -2.5110897951580668e-05,
      "longitude_deg": -110.02816637785422,
      "height_km": 475.7913214741405,
      "semi_major_axis_km": 6853.251195355091,
      "eccentricity": 0.0001043,
      "inclination_deg": 53.1586,
      "raan_deg": 355.8702,
      "arg_perigee_deg": 71.9737,
      "mean_anomaly_deg": 288.1377,
      "mean_motion_rev_day": 15.30233785
    },
    {
      "epoch": "2026-04-05T09:51:50.593536Z",
      "apogee_km": 475.91512051554673,
      "perigee_km": 474.49469687155124,
      "latitude_deg": 9.030560278740232e-06,
      "longitude_deg": 11.158105494140777,
      "height_km": 475.5314703505585,
      "semi_major_axis_km": 6853.341908693549,
      "eccentricity": 0.00010363,
      "inclination_deg": 53.1589,
      "raan_deg": 352.8359,
      "arg_perigee_deg": 36.3141,
      "mean_anomaly_deg": 323.793,
      "mean_motion_rev_day": 15.30203403
    },
    {
      "epoch": "2026-04-05T20:50:11.387904Z",
      "apogee_km": 476.0294291190221,
      "perigee_km": 473.80492773270635,
      "latitude_deg": 1.8234050342511672e-05,
      "longitude_deg": -156.00565388416845,
      "height_km": 474.92875360421243,
      "semi_major_axis_km": 6853.054178425864,
      "eccentricity": 0.0001623,
      "inclination_deg": 53.1585,
      "raan_deg": 350.7094,
      "arg_perigee_deg": 37.1281,
      "mean_anomaly_deg": 322.9832,
      "mean_motion_rev_day": 15.30299774
    },
    {
      "epoch": "2026-04-05T23:58:16.860000Z",
      "apogee_km": 475.97474484988015,
      "perigee_km": 473.7982245911335,
      "latitude_deg": 3.336286183750055e-06,
      "longitude_deg": 156.2424905289511,
      "height_km": 475.471172270708,
      "semi_major_axis_km": 6853.0234847205065,
      "eccentricity": 0.0001588,
      "inclination_deg": 53.1594,
      "raan_deg": 350.1091,
      "arg_perigee_deg": 73.2835,
      "mean_anomaly_deg": 286.834,
      "mean_motion_rev_day": 15.30310055
    },
    {
      "epoch": "2026-04-06T23:29:06.473760Z",
      "apogee_km": 476.11648393832184,
      "perigee_km": 474.41683983017356,
      "latitude_deg": -3.754063583646783e-05,
      "longitude_deg": 158.01455694617377,
      "height_km": 476.01283258333694,
      "semi_major_axis_km": 6853.403661884247,
      "eccentricity": 0.000124,
      "inclination_deg": 53.159,
      "raan_deg": 345.5536,
      "arg_perigee_deg": 79.7057,
      "mean_anomaly_deg": 280.4083,
      "mean_motion_rev_day": 15.30182721
    }
  ]
}